ONEWEB-0035             
1 45143U 20008N   25244.14675964 -.00000587  00000+0 -17177-2 0  9992
2 45143  87.8746  93.9366 0001536  83.2483 276.8820 13.10370894270084
ONEWEB-0036             
1 45144U 20008P   25244.13680687 -.00000225  00000+0 -68013-3 0  9995
2 45144  87.8752  93.8842 0001958  82.7565 277.3785 13.10369982270513
ONEWEB-0038             
1 45145U 20008Q   25244.23300003  .00000164  00000+0  42740-3 0  9997
2 45145  87.8779  78.6352 0001897  26.5990 333.5235 13.11412839272451
ONEWEB-0039             
1 45146U 20008R   25244.11939561  .00000592  00000+0  16608-2 0  9990
2 45146  87.8748  93.9076 0002057  74.7455 285.3900 13.10371369270307
ONEWEB-0040             
1 45147U 20008S   25244.11276119  .00000688  00000+0  19348-2 0  9994
2 45147  87.8755  93.9389 0001684  81.0814 279.0504 13.10372174270000
ONEWEB-0043             
1 45149U 20008U   25244.11441057  .00000676  00000+0  18993-2 0  9993
2 45149  87.8752  93.9217 0002138  82.2843 277.8527 13.10371471270324
ONEWEB-0044             
1 45150U 20008V   25244.14260980 -.00000520  00000+0 -15255-2 0  9990
2 45150  87.8747  93.9075 0001938  82.1432 277.9915 13.10369815270626
ONEWEB-0045             
1 45151U 20008W   25244.07519399  .00000571  00000+0  15748-2 0  9995
2 45151  87.8784  78.6394 0001669  81.1822 278.9495 13.11414840272519
ONEWEB-0047             
1 45152U 20008X   25244.13600325  .00000056  00000+0  12553-3 0  9993
2 45152  87.8747  93.9186 0001734  81.0300 279.1023 13.10369026270344
ONEWEB-0048             
1 45153U 20008Y   25244.20737447  .00000088  00000+0  21526-3 0  9993
2 45153  87.8748  93.9292 0001644  83.4545 276.6770 13.10373429269960
ONEWEB-0049             
1 45154U 20008Z   25244.13349287 -.00000082  00000+0 -27223-3 0  9993
2 45154  87.8746  93.9359 0002012  94.9751 265.1606 13.10369731270176
ONEWEB-0051             
1 45155U 20008AA  25244.07349706  .00000592  00000+0  16344-2 0  9998
2 45155  87.8772  78.6809 0001609  87.0376 273.0936 13.11416406273195
ONEWEB-0052             
1 45156U 20008AB  25244.12851605  .00000192  00000+0  51359-3 0  9993
2 45156  87.8758  93.8866 0002146  92.8004 267.3369 13.10368627270082
ONEWEB-0053             
1 45157U 20008AC  25244.11107829  .00000695  00000+0  19552-2 0  9991
2 45157  87.8753  93.9453 0001828  72.8764 287.2563 13.10371571270054
ONEWEB-0054             
1 45158U 20008AD  25244.14592542 -.00000607  00000+0 -17750-2 0  9998
2 45158  87.8748  93.9117 0001675  85.7279 274.4039 13.10370913270178
ONEWEB-0056             
1 45159U 20008AE  25244.12685898  .00000332  00000+0  91518-3 0  9992
2 45159  87.8746  93.9126 0001712  83.7555 276.3767 13.10369439270321
ONEWEB-0057             
1 45160U 20008AF  25244.13431693 -.00000152  00000+0 -47269-3 0  9993
2 45160  87.8747  93.9250 0001857  83.9819 276.1520 13.10368743270497
