[{"OBJECT_NAME":"ONEWEB-0035","OBJECT_ID":"2020-008N","EPOCH":"2025-09-01T03:31:20.032896","MEAN_MOTION":13.10370894,"ECCENTRICITY":0.00015366,"INCLINATION":87.8746,"RA_OF_ASC_NODE":93.9366,"ARG_OF_PERICENTER":83.2483,"MEAN_ANOMALY":276.882,"EPHEMERIS_TYPE":0,"CLASSIFICATION_TYPE":"U","NORAD_CAT_ID":45143,"ELEMENT_SET_NO":999,"REV_AT_EPOCH":27008,"BSTAR":-0.0017177144,"MEAN_MOTION_DOT":-5.87e-6,"MEAN_MOTION_DDOT":0},{"OBJECT_NAME":"ONEWEB-0036","OBJECT_ID":"2020-008P","EPOCH":"2025-09-01T03:17:00.113568","MEAN_MOTION":13.10369982,"ECCENTRICITY":0.00019588,"INCLINATION":87.8752,"RA_OF_ASC_NODE":93.8842,"ARG_OF_PERICENTER":82.7565,"MEAN_ANOMALY":277.3785,"EPHEMERIS_TYPE":0,"CLASSIFICATION_TYPE":"U","NORAD_CAT_ID":45144,"ELEMENT_SET_NO":999,"REV_AT_EPOCH":27051,"BSTAR":-0.00068012803,"MEAN_MOTION_DOT":-2.25e-6,"MEAN_MOTION_DDOT":0},{"OBJECT_NAME":"ONEWEB-0038","OBJECT_ID":"2020-008Q","EPOCH":"2025-09-01T05:35:31.202592","MEAN_MOTION":13.11412839,"ECCENTRICITY":0.0001897,"INCLINATION":87.8779,"RA_OF_ASC_NODE":78.6352,"ARG_OF_PERICENTER":26.599,"MEAN_ANOMALY":333.5235,"EPHEMERIS_TYPE":0,"CLASSIFICATION_TYPE":"U","NORAD_CAT_ID":45145,"ELEMENT_SET_NO":999,"REV_AT_EPOCH":27245,"BSTAR":0.00042739564,"MEAN_MOTION_DOT":1.64e-6,"MEAN_MOTION_DDOT":0},{"OBJECT_NAME":"ONEWEB-0039","OBJECT_ID":"2020-008R","EPOCH":"2025-09-01T02:51:55.780704","MEAN_MOTION":13.10371369,"ECCENTRICITY":0.00020579,"INCLINATION":87.8748,"RA_OF_ASC_NODE":93.9076,"ARG_OF_PERICENTER":74.7455,"MEAN_ANOMALY":285.39,"EPHEMERIS_TYPE":0,"CLASSIFICATION_TYPE":"U","NORAD_CAT_ID":45146,"ELEMENT_SET_NO":999,"REV_AT_EPOCH":27030,"BSTAR":0.0016608069,"MEAN_MOTION_DOT":5.92e-6,"MEAN_MOTION_DDOT":0},{"OBJECT_NAME":"ONEWEB-0040","OBJECT_ID":"2020-008S","EPOCH":"2025-09-01T02:42:22.566816","MEAN_MOTION":13.10372174,"ECCENTRICITY":0.00016841,"INCLINATION":87.8755,"RA_OF_ASC_NODE":93.9389,"ARG_OF_PERICENTER":81.0814,"MEAN_ANOMALY":279.0504,"EPHEMERIS_TYPE":0,"CLASSIFICATION_TYPE":"U","NORAD_CAT_ID":45147,"ELEMENT_SET_NO":999,"REV_AT_EPOCH":27000,"BSTAR":0.0019347852,"MEAN_MOTION_DOT":6.88e-6,"MEAN_MOTION_DDOT":0},{"OBJECT_NAME":"ONEWEB-0043","OBJECT_ID":"2020-008U","EPOCH":"2025-09-01T02:44:45.073248","MEAN_MOTION":13.10371471,"ECCENTRICITY":0.00021385,"INCLINATION":87.8752,"RA_OF_ASC_NODE":93.9217,"ARG_OF_PERICENTER":82.2843,"MEAN_ANOMALY":277.8527,"EPHEMERIS_TYPE":0,"CLASSIFICATION_TYPE":"U","NORAD_CAT_ID":45149,"ELEMENT_SET_NO":999,"REV_AT_EPOCH":27032,"BSTAR":0.0018993381,"MEAN_MOTION_DOT":6.76e-6,"MEAN_MOTION_DDOT":0},{"OBJECT_NAME":"ONEWEB-0044","OBJECT_ID":"2020-008V","EPOCH":"2025-09-01T03:25:21.486720","MEAN_MOTION":13.10369815,"ECCENTRICITY":0.00019385,"INCLINATION":87.8747,"RA_OF_ASC_NODE":93.9075,"ARG_OF_PERICENTER":82.1432,"MEAN_ANOMALY":277.9915,"EPHEMERIS_TYPE":0,"CLASSIFICATION_TYPE":"U","NORAD_CAT_ID":45150,"ELEMENT_SET_NO":999,"REV_AT_EPOCH":27062,"BSTAR":-0.0015255333,"MEAN_MOTION_DOT":-5.2e-6,"MEAN_MOTION_DDOT":0},{"OBJECT_NAME":"ONEWEB-0045","OBJECT_ID":"2020-008W","EPOCH":"2025-09-01T01:48:16.760736","MEAN_MOTION":13.1141484,"ECCENTRICITY":0.00016698,"INCLINATION":87.8784,"RA_OF_ASC_NODE":78.6394,"ARG_OF_PERICENTER":81.1822,"MEAN_ANOMALY":278.9495,"EPHEMERIS_TYPE":0,"CLASSIFICATION_TYPE":"U","NORAD_CAT_ID":45151,"ELEMENT_SET_NO":999,"REV_AT_EPOCH":27251,"BSTAR":0.0015747901,"MEAN_MOTION_DOT":5.71e-6,"MEAN_MOTION_DDOT":0},{"OBJECT_NAME":"ONEWEB-0047","OBJECT_ID":"2020-008X","EPOCH":"2025-09-01T03:15:50.680800","MEAN_MOTION":13.10369026,"ECCENTRICITY":0.00017344,"INCLINATION":87.8747,"RA_OF_ASC_NODE":93.9186,"ARG_OF_PERICENTER":81.03,"MEAN_ANOMALY":279.1023,"EPHEMERIS_TYPE":0,"CLASSIFICATION_TYPE":"U","NORAD_CAT_ID":45152,"ELEMENT_SET_NO":999,"REV_AT_EPOCH":27034,"BSTAR":0.00012552636,"MEAN_MOTION_DOT":5.6e-7,"MEAN_MOTION_DDOT":0},{"OBJECT_NAME":"ONEWEB-0048","OBJECT_ID":"2020-008Y","EPOCH":"2025-09-01T04:58:37.154208","MEAN_MOTION":13.10373429,"ECCENTRICITY":0.00016443,"INCLINATION":87.8748,"RA_OF_ASC_NODE":93.9292,"ARG_OF_PERICENTER":83.4545,"MEAN_ANOMALY":276.677,"EPHEMERIS_TYPE":0,"CLASSIFICATION_TYPE":"U","NORAD_CAT_ID":45153,"ELEMENT_SET_NO":999,"REV_AT_EPOCH":26996,"BSTAR":0.00021525826,"MEAN_MOTION_DOT":8.8e-7,"MEAN_MOTION_DDOT":0},{"OBJECT_NAME":"ONEWEB-0049","OBJECT_ID":"2020-008Z","EPOCH":"2025-09-01T03:12:13.783968","MEAN_MOTION":13.10369731,"ECCENTRICITY":0.00020122,"INCLINATION":87.8746,"RA_OF_ASC_NODE":93.9359,"ARG_OF_PERICENTER":94.9751,"MEAN_ANOMALY":265.1606,"EPHEMERIS_TYPE":0,"CLASSIFICATION_TYPE":"U","NORAD_CAT_ID":45154,"ELEMENT_SET_NO":999,"REV_AT_EPOCH":27017,"BSTAR":-0.00027223268,"MEAN_MOTION_DOT":-8.2e-7,"MEAN_MOTION_DDOT":0},{"OBJECT_NAME":"ONEWEB-0051","OBJECT_ID":"2020-008AA","EPOCH":"2025-09-01T01:45:50.145984","MEAN_MOTION":13.11416406,"ECCENTRICITY":0.0001609,"INCLINATION":87.8772,"RA_OF_ASC_NODE":78.6809,"ARG_OF_PERICENTER":87.0376,"MEAN_ANOMALY":273.0936,"EPHEMERIS_TYPE":0,"CLASSIFICATION_TYPE":"U","NORAD_CAT_ID":45155,"ELEMENT_SET_NO":999,"REV_AT_EPOCH":27319,"BSTAR":0.0016343842,"MEAN_MOTION_DOT":5.92e-6,"MEAN_MOTION_DDOT":0},{"OBJECT_NAME":"ONEWEB-0052","OBJECT_ID":"2020-008AB","EPOCH":"2025-09-01T03:05:03.786720","MEAN_MOTION":13.10368627,"ECCENTRICITY":0.00021465,"INCLINATION":87.8758,"RA_OF_ASC_NODE":93.8866,"ARG_OF_PERICENTER":92.8004,"MEAN_ANOMALY":267.3369,"EPHEMERIS_TYPE":0,"CLASSIFICATION_TYPE":"U","NORAD_CAT_ID":45156,"ELEMENT_SET_NO":999,"REV_AT_EPOCH":27008,"BSTAR":0.00051358686,"MEAN_MOTION_DOT":1.92e-6,"MEAN_MOTION_DDOT":0},{"OBJECT_NAME":"ONEWEB-0053","OBJECT_ID":"2020-008AC","EPOCH":"2025-09-01T02:39:57.164256","MEAN_MOTION":13.10371571,"ECCENTRICITY":0.00018284,"INCLINATION":87.8753,"RA_OF_ASC_NODE":93.9453,"ARG_OF_PERICENTER":72.8764,"MEAN_ANOMALY":287.2563,"EPHEMERIS_TYPE":0,"CLASSIFICATION_TYPE":"U","NORAD_CAT_ID":45157,"ELEMENT_SET_NO":999,"REV_AT_EPOCH":27005,"BSTAR":0.0019551605,"MEAN_MOTION_DOT":6.95e-6,"MEAN_MOTION_DDOT":0},{"OBJECT_NAME":"ONEWEB-0054","OBJECT_ID":"2020-008AD","EPOCH":"2025-09-01T03:30:07.956288","MEAN_MOTION":13.10370913,"ECCENTRICITY":0.00016758,"INCLINATION":87.8748,"RA_OF_ASC_NODE":93.9117,"ARG_OF_PERICENTER":85.7279,"MEAN_ANOMALY":274.4039,"EPHEMERIS_TYPE":0,"CLASSIFICATION_TYPE":"U","NORAD_CAT_ID":45158,"ELEMENT_SET_NO":999,"REV_AT_EPOCH":27017,"BSTAR":-0.0017750029,"MEAN_MOTION_DOT":-6.07e-6,"MEAN_MOTION_DDOT":0},{"OBJECT_NAME":"ONEWEB-0056","OBJECT_ID":"2020-008AE","EPOCH":"2025-09-01T03:02:40.615872","MEAN_MOTION":13.10369439,"ECCENTRICITY":0.00017125,"INCLINATION":87.8746,"RA_OF_ASC_NODE":93.9126,"ARG_OF_PERICENTER":83.7555,"MEAN_ANOMALY":276.3767,"EPHEMERIS_TYPE":0,"CLASSIFICATION_TYPE":"U","NORAD_CAT_ID":45159,"ELEMENT_SET_NO":999,"REV_AT_EPOCH":27032,"BSTAR":0.00091518373,"MEAN_MOTION_DOT":3.32e-6,"MEAN_MOTION_DDOT":0},{"OBJECT_NAME":"ONEWEB-0057","OBJECT_ID":"2020-008AF","EPOCH":"2025-09-01T03:13:24.982752","MEAN_MOTION":13.10368743,"ECCENTRICITY":0.00018572,"INCLINATION":87.8747,"RA_OF_ASC_NODE":93.925,"ARG_OF_PERICENTER":83.9819,"MEAN_ANOMALY":276.152,"EPHEMERIS_TYPE":0,"CLASSIFICATION_TYPE":"U","NORAD_CAT_ID":45160,"ELEMENT_SET_NO":999,"REV_AT_EPOCH":27049,"BSTAR":-0.00047269268,"MEAN_MOTION_DOT":-1.52e-6,"MEAN_MOTION_DDOT":0}]
